$$SOE
2459580.500000000, A.D. 2022-Jan-01 00:00:00.0000, 1.929037551196408E+08, 3.693117050577799E+08, 6.769265293643846E+07,
2459587.500000000, A.D. 2022-Jan-08 00:00:00.0000, 1.847162707046957E+08, 3.753303935551916E+08, 6.647137076519650E+07,
2459594.500000000, A.D. 2022-Jan-15 00:00:00.0000, 1.764107489247774E+08, 3.811092928056134E+08, 6.520762091799209E+07,
2459601.500000000, A.D. 2022-Jan-22 00:00:00.0000, 1.679936258368533E+08, 3.866471441305424E+08, 6.390262691588253E+07,
2459608.500000000, A.D. 2022-Jan-29 00:00:00.0000, 1.594712656662816E+08, 3.919428326265813E+08, 6.255760827873215E+07,
2459615.500000000, A.D. 2022-Feb-05 00:00:00.0000, 1.508499586591445E+08, 3.969953806949946E+08, 6.117378024477643E+07,
2459622.500000000, A.D. 2022-Feb-12 00:00:00.0000, 1.421359212975136E+08, 4.018039407634259E+08, 5.975235326463133E+07,
2459629.500000000, A.D. 2022-Feb-19 00:00:00.0000, 1.333352975368758E+08, 4.063677895634495E+08, 5.829453258023128E+07,
2459636.500000000, A.D. 2022-Feb-26 00:00:00.0000, 1.244541597368872E+08, 4.106863232335436E+08, 5.680151794514358E+07,
2459643.500000000, A.D. 2022-Mar-05 00:00:00.0000, 1.154985094281519E+08, 4.147590526244600E+08, 5.527450341719013E+07,
2459650.500000000, A.D. 2022-Mar-12 00:00:00.0000, 1.064742781220081E+08, 4.185855987355973E+08, 5.371467719399348E+07,
2459657.500000000, A.D. 2022-Mar-19 00:00:00.0000, 9.738732822089054E+07, 4.221656883046688E+08, 5.212322148376334E+07,
2459664.500000000, A.D. 2022-Mar-26 00:00:00.0000, 8.824345403924906E+07, 4.254991495388339E+08, 5.050131240553603E+07,
2459671.500000000, A.D. 2022-Apr-02 00:00:00.0000, 7.904838299129969E+07, 4.285859079255061E+08, 4.885011990504566E+07,
2459678.500000000, A.D. 2022-Apr-09 00:00:00.0000, 6.980777720688838E+07, 4.314259821219038E+08, 4.717080765890613E+07,
2459685.500000000, A.D. 2022-Apr-16 00:00:00.0000, 6.052723592278866E+07, 4.340194805724816E+08, 4.546453298534259E+07,
2459692.500000000, A.D. 2022-Apr-23 00:00:00.0000, 5.121229737283719E+07, 4.363665999336172E+08, 4.373244696406358E+07,
2459699.500000000, A.D. 2022-Apr-30 00:00:00.0000, 4.186843829944035E+07, 4.384676230517095E+08, 4.197569475057605E+07,
2459706.500000000, A.D. 2022-May-07 00:00:00.0000, 3.250107413893880E+07, 4.403229145136929E+08, 4.019541564074105E+07,
2459713.500000000, A.D. 2022-May-14 00:00:00.0000, 2.311556126275794E+07, 4.419329168060945E+08, 3.839274300510931E+07,
2459720.500000000, A.D. 2022-May-21 00:00:00.0000, 1.371719923863774E+07, 4.432981478365757E+08, 3.656880433948761E+07,
2459727.500000000, A.D. 2022-May-28 00:00:00.0000, 4.311232627430170E+06, 4.444191988525667E+08, 3.472472139548454E+07,
2459734.500000000, A.D. 2022-Jun-04 00:00:00.0000, -5.097147413236679E+06, 4.452967324386029E+08, 3.286161033856273E+07,
2459741.500000000, A.D. 2022-Jun-11 00:00:00.0000, -1.450280157893814E+07, 4.459314805897000E+08, 3.098058191918185E+07,
2459748.500000000, A.D. 2022-Jun-18 00:00:00.0000, -2.390064088805690E+07, 4.463242428695014E+08, 2.908274165335032E+07,
2459755.500000000, A.D. 2022-Jun-25 00:00:00.0000, -3.328562514589012E+07, 4.464758846156706E+08, 2.716919000606099E+07,
2459762.500000000, A.D. 2022-Jul-02 00:00:00.0000, -4.265276127331617E+07, 4.463873351226339E+08, 2.524102255894339E+07,
2459769.500000000, A.D. 2022-Jul-09 00:00:00.0000, -5.199710111382774E+07, 4.460595859749255E+08, 2.329933013993242E+07,
2459776.500000000, A.D. 2022-Jul-16 00:00:00.0000, -6.131373877804348E+07, 4.454936906114694E+08, 2.134519900774381E+07,
2459783.500000000, A.D. 2022-Jul-23 00:00:00.0000, -7.059780972633299E+07, 4.446907651965917E+08, 1.937971129829788E+07,
2459790.500000000, A.D. 2022-Jul-30 00:00:00.0000, -7.984449150681481E+07, 4.436519874383698E+08, 1.740394545040900E+07,
2459797.500000000, A.D. 2022-Aug-06 00:00:00.0000, -8.904900255422625E+07, 4.423785939978150E+08, 1.541897633314270E+07,
2459804.500000000, A.D. 2022-Aug-13 00:00:00.0000, -9.820659987545814E+07, 4.408718792430822E+08, 1.342587537484938E+07,
2459811.500000000, A.D. 2022-Aug-20 00:00:00.0000, -1.073125771909817E+08, 4.391331948421249E+08, 1.142571079584068E+07,
2459818.500000000, A.D. 2022-Aug-27 00:00:00.0000, -1.163622634650985E+08, 4.371639494613547E+08, 9.419547878472507E+06,
2459825.500000000, A.D. 2022-Sep-03 00:00:00.0000, -1.253510215799697E+08, 4.349656084543972E+08, 7.408449242543608E+06,
2459832.500000000, A.D. 2022-Sep-10 00:00:00.0000, -1.342742470673823E+08, 4.325396935613967E+08, 5.393475119564295E+06,
2459839.500000000, A.D. 2022-Sep-17 00:00:00.0000, -1.431273668729445E+08, 4.298877826159766E+08, 3.375683622858971E+06,
2459846.500000000, A.D. 2022-Sep-24 00:00:00.0000, -1.519058380953327E+08, 4.270115092092312E+08, 1.356131003367662E+06,
2459853.500000000, A.D. 2022-Oct-01 00:00:00.0000, -1.606051464624544E+08, 4.239125622886310E+08, -6.641281333886385E+05,
2459860.500000000, A.D. 2022-Oct-08 00:00:00.0000, -1.692208041387143E+08, 4.205926862133660E+08, -2.684040644721627E+06,
2459867.500000000, A.D. 2022-Oct-15 00:00:00.0000, -1.777483477970592E+08, 4.170536824650098E+08, -4.702554520096779E+06,
2459874.500000000, A.D. 2022-Oct-22 00:00:00.0000, -1.861833391379825E+08, 4.132974113293091E+08, -6.718618340959281E+06,
2459881.500000000, A.D. 2022-Oct-29 00:00:00.0000, -1.945213653575172E+08, 4.093257909515857E+08, -8.731180972761542E+06,
2459888.500000000, A.D. 2022-Nov-05 00:00:00.0000, -2.027580374685777E+08, 4.051407965036107E+08, -1.073919145821872E+07,
2459895.500000000, A.D. 2022-Nov-12 00:00:00.0000, -2.108889884442007E+08, 4.007444607302943E+08, -1.274159882896021E+07,
2459902.500000000, A.D. 2022-Nov-19 00:00:00.0000, -2.189098719036120E+08, 3.961388749221646E+08, -1.473735184841083E+07,
2459909.500000000, A.D. 2022-Nov-26 00:00:00.0000, -2.268163610808045E+08, 3.913261899151273E+08, -1.672539874303254E+07,
2459916.500000000, A.D. 2022-Dec-03 00:00:00.0000, -2.346041479121724E+08, 3.863086171051512E+08, -1.870468693867199E+07,
2459923.500000000, A.D. 2022-Dec-10 00:00:00.0000, -2.422689422004799E+08, 3.810884294962087E+08, -2.067416280524755E+07,
2459930.500000000, A.D. 2022-Dec-17 00:00:00.0000, -2.498064708333460E+08, 3.756679627563887E+08, -2.263277141467693E+07,
2459937.500000000, A.D. 2022-Dec-24 00:00:00.0000, -2.572124769498266E+08, 3.700496162163800E+08, -2.457945632804795E+07,
2459944.500000000, A.D. 2022-Dec-31 00:00:00.0000, -2.644827187005507E+08, 3.642358539178814E+08, -2.651315943663445E+07,
2459951.500000000, A.D. 2023-Jan-07 00:00:00.0000, -2.716129674822850E+08, 3.582292066745372E+08, -2.843282079001226E+07,
2459958.500000000, A.D. 2023-Jan-14 00:00:00.0000, -2.785990076182052E+08, 3.520322756436380E+08, -3.033737819119662E+07,
2459965.500000000, A.D. 2023-Jan-21 00:00:00.0000, -2.854366381310290E+08, 3.456477342378513E+08, -3.222576675988306E+07,
2459972.500000000, A.D. 2023-Jan-28 00:00:00.0000, -2.921216729417689E+08, 3.390783281796150E+08, -3.409691881627722E+07,
2459979.500000000, A.D. 2023-Feb-04 00:00:00.0000, -2.986499397072616E+08, 3.323268767237391E+08, -3.594976381923816E+07,
2459986.500000000, A.D. 2023-Feb-11 00:00:00.0000, -3.050172790974052E+08, 3.253962748556645E+08, -3.778322821089718E+07,
2459993.500000000, A.D. 2023-Feb-18 00:00:00.0000, -3.112195445797097E+08, 3.182894956427023E+08, -3.959623522998194E+07,
2460000.500000000, A.D. 2023-Feb-25 00:00:00.0000, -3.172526024533690E+08, 3.110095925760677E+08, -4.138770473179622E+07,
2460007.500000000, A.D. 2023-Mar-04 00:00:00.0000, -3.231123320367843E+08, 3.035597019225850E+08, -4.315655302353445E+07,
2460014.500000000, A.D. 2023-Mar-11 00:00:00.0000, -3.287946259865717E+08, 2.959430450873508E+08, -4.490169271861151E+07,
2460021.500000000, A.D. 2023-Mar-18 00:00:00.0000, -3.342953907077689E+08, 2.881629309390345E+08, -4.662203261963964E+07,
2460028.500000000, A.D. 2023-Mar-25 00:00:00.0000, -3.396105466587027E+08, 2.802227580517331E+08, -4.831647765392993E+07,
2460035.500000000, A.D. 2023-Apr-01 00:00:00.0000, -3.447360281328682E+08, 2.721260172575297E+08, -4.998392886974316E+07,
2460042.500000000, A.D. 2023-Apr-08 00:00:00.0000, -3.496677831408507E+08, 2.638762957351849E+08, -5.162328333839490E+07,
2460049.500000000, A.D. 2023-Apr-15 00:00:00.0000, -3.544017757379988E+08, 2.554772815302439E+08, -5.323343384047464E+07,
2460056.500000000, A.D. 2023-Apr-22 00:00:00.0000, -3.589339889950233E+08, 2.469327654564719E+08, -5.481326875345980E+07,
2460063.500000000, A.D. 2023-Apr-29 00:00:00.0000, -3.632604258802168E+08, 2.382466426292323E+08, -5.636167220796644E+07,
2460070.500000000, A.D. 2023-May-06 00:00:00.0000, -3.673771098210061E+08, 2.294229154074226E+08, -5.787752420646957E+07,
2460077.500000000, A.D. 2023-May-13 00:00:00.0000, -3.712800859319775E+08, 2.204656968473691E+08, -5.935970068980656E+07,
2460084.500000000, A.D. 2023-May-20 00:00:00.0000, -3.749654226862663E+08, 2.113792141744990E+08, -6.080707361526720E+07,
2460091.500000000, A.D. 2023-May-27 00:00:00.0000, -3.784292138493369E+08, 2.021678122402370E+08, -6.221851106925084E+07,
2460098.500000000, A.D. 2023-Jun-03 00:00:00.0000, -3.816675806309729E+08, 1.928359569878066E+08, -6.359287742117374E+07,
2460105.500000000, A.D. 2023-Jun-10 00:00:00.0000, -3.846766740447943E+08, 1.833882389110965E+08, -6.492903352566034E+07,
2460112.500000000, A.D. 2023-Jun-17 00:00:00.0000, -3.874526773987731E+08, 1.738293764435727E+08, -6.622583698963769E+07,
2460119.500000000, A.D. 2023-Jun-24 00:00:00.0000, -3.899918086090598E+08, 1.641642193284648E+08, -6.748214253242373E+07,
2460126.500000000, A.D. 2023-Jul-01 00:00:00.0000, -3.922903220966046E+08, 1.543977527922249E+08, -6.869680239750513E+07,
2460133.500000000, A.D. 2023-Jul-08 00:00:00.0000, -3.943445119546928E+08, 1.445351033356628E+08, -6.986866659875794E+07,
2460140.500000000, A.D. 2023-Jul-15 00:00:00.0000, -3.961507176806064E+08, 1.345815433053255E+08, -7.099658311964890E+07,
2460147.500000000, A.D. 2023-Jul-22 00:00:00.0000, -3.977053289652221E+08, 1.245424932035054E+08, -7.207939847703555E+07,
$$EOE